[
    {
        "Altitude(m)": 610399.5011338174,
        "Argument of Periapsis(deg)": 0.0,
        "Eccentricity": 0.0,
        "Inclination(deg)": 60.0,
        "Latitude(deg)": 52.111258514445375,
        "Longitude(deg)": -92.41568705888659,
        "Mean Anomaly(deg)": -294.5455,
        "RAAN(deg)": 320.0,
        "Satellite Name": "Test1 1412",
        "Satellite Number": 1412,
        "Semi-Major Axis(m)": 6980739.136638005,
        "Time(s)": 0
    },
    {
        "Altitude(m)": 610481.6522847739,
        "Argument of Periapsis(deg)": 0.00010418945913296404,
        "Eccentricity": 0.0,
        "Inclination(deg)": 60.0,
        "Latitude(deg)": 52.47086070503475,
        "Longitude(deg)": -91.63355209865438,
        "Mean Anomaly(deg)": -293.9253938545382,
        "RAAN(deg)": 319.9995799508602,
        "Satellite Name": "Test1 1412",
        "Satellite Number": 1412,
        "Semi-Major Axis(m)": 6980739.136638005,
        "Time(s)": 10
    }
]